{
    "links": {
        "self": "http://www.neowsapp.com/rest/v1/neo/3789425?api_key=iIulBulltgU6a56xZRHN4H3l9WmuAYTsLGpBGhQ2"
    },
    "id": "3789425",
    "neo_reference_id": "3789425",
    "name": "(2017 VY14)",
    "designation": "2017 VY14",
    "nasa_jpl_url": "http://ssd.jpl.nasa.gov/sbdb.cgi?sstr=3789425",
    "absolute_magnitude_h": 24.9,
    "estimated_diameter": {
        "kilometers": {
            "estimated_diameter_min": 0.0278326768,
            "estimated_diameter_max": 0.0622357573
        },
        "meters": {
            "estimated_diameter_min": 27.8326768072,
            "estimated_diameter_max": 62.2357573367
        },
        "miles": {
            "estimated_diameter_min": 0.0172944182,
            "estimated_diameter_max": 0.0386714948
        },
        "feet": {
            "estimated_diameter_min": 91.3145593761,
            "estimated_diameter_max": 204.1855621004
        }
    },
    "is_potentially_hazardous_asteroid": false,
    "close_approach_data": [
        {
            "close_approach_date": "2017-11-14",
            "close_approach_date_full": "2017-Nov-14 13:45",
            "epoch_date_close_approach": 1510667100000,
            "relative_velocity": {
                "kilometers_per_second": "11.5225817471",
                "kilometers_per_hour": "41481.2942894048",
                "miles_per_hour": "25774.8631099916"
            },
            "miss_distance": {
                "astronomical": "0.1026255365",
                "lunar": "39.9213336985",
                "kilometers": "15352561.668007255",
                "miles": "9539639.461539919"
            },
            "orbiting_body": "Earth"
        }
    ],
    "orbital_data": {
        "orbit_id": "2",
        "orbit_determination_date": "2019-07-19 05:26:28",
        "first_observation_date": "2017-11-15",
        "last_observation_date": "2017-11-20",
        "data_arc_in_days": 5,
        "observations_used": 40,
        "orbit_uncertainty": "9",
        "minimum_orbit_intersection": ".0862808",
        "jupiter_tisserand_invariant": "4.129",
        "epoch_osculation": "2458074.5",
        "eccentricity": ".3558706103428159",
        "semi_major_axis": "1.661984174767402",
        "inclination": "19.03706331464965",
        "ascending_node_longitude": "232.3356275395915",
        "orbital_period": "782.5980350075781",
        "perihelion_distance": "1.070532852112825",
        "perihelion_argument": "167.5084684055307",
        "aphelion_distance": "2.253435497421978",
        "perihelion_time": "2458063.281759681409",
        "mean_anomaly": "5.160460842012788",
        "mean_motion": ".4600062661753476",
        "equinox": "J2000",
        "orbit_class": {
            "orbit_class_type": "AMO",
            "orbit_class_description": "Near-Earth asteroid orbits similar to that of 1221 Amor",
            "orbit_class_range": "1.017 AU < q (perihelion) < 1.3 AU"
        }
    },
    "is_sentry_object": false
}